STARLINK-2506
1 28315C 21036AR  21325.11543860 -.00000420  00000-0 -28176-4 0  3253
2 28315  53.0547 297.7187 0001972  58.1364 351.9765 15.06391146    17
